[Satellite]
VERSION=1.1
NAME=OPTUS B3
NICKNAME=OPTUS B3
TLE1=1 23227U 94055A   11058.45189088 -.00000096  00000-0  10000-3 0  6972
TLE2=2 23227   2.9525  72.0846 0004920 278.8713 132.6304  1.00272190 60422
